{"type": "FeatureCollection", "features": [ {"type": "Feature", "properties": {"norad_id": 33841, "name": "COSMOS 2251 DEB", "group": "cosmos-2251-debris", "lat": 46.90464090460439, "lon": 54.328377561869814, "alt_km": 775.2155078851692, "timestamp": "2025-12-26T19:22:39.302179+00:00", "meta": {"OBJECT_NAME": "COSMOS 2251 DEB", "OBJECT_ID": "1993-036CJ", "EPOCH": "2025-12-26T11:15:45.752256", "MEAN_MOTION": 14.37879253, "ECCENTRICITY": 0.00210743, "INCLINATION": 74.0372, "RA_OF_ASC_NODE": 252.7642, "ARG_OF_PERICENTER": 330.676, "MEAN_ANOMALY": 210.2237, "EPHEMERIS_TYPE": 0, "CLASSIFICATION_TYPE": "U", "NORAD_CAT_ID": 33841, "ELEMENT_SET_NO": 999, "REV_AT_EPOCH": 88311, "BSTAR": 0.0002078735, "MEAN_MOTION_DOT": 6.02e-06, "MEAN_MOTION_DDOT": 0}, "tle": {"line1": "1 33841U 93036CJ  25360.46927954  .00000602  00000+0  20787-3 0  9996", "line2": "2 33841  74.0372 252.7642 0021074 330.6760 210.2237 14.37879253883118"}}, "geometry": {"type": "Point", "coordinates": [54.328377561869814, 46.90464090460439]}}, {"type": "Feature", "properties": {"norad_id": 33842, "name": "COSMOS 2251 DEB", "group": "cosmos-2251-debris", "lat": -74.0203793219895, "lon": 102.83064708548508, "alt_km": 726.5496169951375, "timestamp": "2025-12-26T19:22:39.302193+00:00", "meta": {"OBJECT_NAME": "COSMOS 2251 DEB", "OBJECT_ID": "1993-036CK", "EPOCH": "2025-12-26T14:47:56.699808", "MEAN_MOTION": 14.42723111, "ECCENTRICITY": 0.00476152, "INCLINATION": 74.0314, "RA_OF_ASC_NODE": 193.8936, "ARG_OF_PERICENTER": 298.4874, "MEAN_ANOMALY": 61.1491, "EPHEMERIS_TYPE": 0, "CLASSIFICATION_TYPE": "U", "NORAD_CAT_ID": 33842, "ELEMENT_SET_NO": 999, "REV_AT_EPOCH": 88537, "BSTAR": 0.00027822689, "MEAN_MOTION_DOT": 9.12e-06, "MEAN_MOTION_DDOT": 0}, "tle": {"line1": "1 33842U 93036CK  25360.61662847  .00000912  00000+0  27823-3 0  9993", "line2": "2 33842  74.0314 193.8936 0047615 298.4874  61.1491 14.42723111885374"}}, "geometry": {"type": "Point", "coordinates": [102.83064708548508, -74.0203793219895]}}, {"type": "Feature", "properties": {"norad_id": 33844, "name": "COSMOS 2251 DEB", "group": "cosmos-2251-debris", "lat": 67.0901187374155, "lon": 164.5663220868286, "alt_km": 756.3849244184021, "timestamp": "2025-12-26T19:22:39.302208+00:00", "meta": {"OBJECT_NAME": "COSMOS 2251 DEB", "OBJECT_ID": "1993-036CM", "EPOCH": "2025-12-26T12:43:33.173184", "MEAN_MOTION": 14.33743318, "ECCENTRICITY": 0.00472511, "INCLINATION": 74.0664, "RA_OF_ASC_NODE": 27.6012, "ARG_OF_PERICENTER": 45.1539, "MEAN_ANOMALY": 71.0596, "EPHEMERIS_TYPE": 0, "CLASSIFICATION_TYPE": "U", "NORAD_CAT_ID": 33844, "ELEMENT_SET_NO": 999, "REV_AT_EPOCH": 87923, "BSTAR": 0.00036460034, "MEAN_MOTION_DOT": 1e-05, "MEAN_MOTION_DDOT": 0}, "tle": {"line1": "1 33844U 93036CM  25360.53024506  .00001000  00000+0  36460-3 0  9996", "line2": "2 33844  74.0664  27.6012 0047251  45.1539  71.0596 14.33743318879239"}}, "geometry": {"type": "Point", "coordinates": [164.5663220868286, 67.0901187374155]}}, {"type": "Feature", "properties": {"norad_id": 33848, "name": "COSMOS 2251 DEB", "group": "cosmos-2251-debris", "lat": 73.98904645218381, "lon": 65.27685648413393, "alt_km": 725.9083470420328, "timestamp": "2025-12-26T19:22:39.302221+00:00", "meta": {"OBJECT_NAME": "COSMOS 2251 DEB", "OBJECT_ID": "1993-036CR", "EPOCH": "2025-12-26T07:52:20.566848", "MEAN_MOTION": 14.44157698, "ECCENTRICITY": 0.00420027, "INCLINATION": 74.0325, "RA_OF_ASC_NODE": 332.3583, "ARG_OF_PERICENTER": 24.3348, "MEAN_ANOMALY": 94.9753, "EPHEMERIS_TYPE": 0, "CLASSIFICATION_TYPE": "U", "NORAD_CAT_ID": 33848, "ELEMENT_SET_NO": 999, "REV_AT_EPOCH": 88027, "BSTAR": 0.0012487231, "MEAN_MOTION_DOT": 4.304e-05, "MEAN_MOTION_DDOT": 0}, "tle": {"line1": "1 33848U 93036CR  25360.32801582  .00004304  00000+0  12487-2 0  9996", "line2": "2 33848  74.0325 332.3583 0042002  24.3348  94.9753 14.44157698880279"}}, "geometry": {"type": "Point", "coordinates": [65.27685648413393, 73.98904645218381]}}, {"type": "Feature", "properties": {"norad_id": 33892, "name": "COSMOS 2251 DEB", "group": "cosmos-2251-debris", "lat": 42.3099341099843, "lon": 91.73600947083236, "alt_km": 769.4530839016297, "timestamp": "2025-12-26T19:22:39.302232+00:00", "meta": {"OBJECT_NAME": "COSMOS 2251 DEB", "OBJECT_ID": "1993-036CV", "EPOCH": "2025-12-26T14:41:47.145408", "MEAN_MOTION": 14.23382284, "ECCENTRICITY": 0.01120126, "INCLINATION": 73.8026, "RA_OF_ASC_NODE": 76.75, "ARG_OF_PERICENTER": 105.2356, "MEAN_ANOMALY": 21.3871, "EPHEMERIS_TYPE": 0, "CLASSIFICATION_TYPE": "U", "NORAD_CAT_ID": 33892, "ELEMENT_SET_NO": 999, "REV_AT_EPOCH": 87152, "BSTAR": 0.00061113297, "MEAN_MOTION_DOT": 1.453e-05, "MEAN_MOTION_DDOT": 0}, "tle": {"line1": "1 33892U 93036CV  25360.61235122  .00001453  00000+0  61113-3 0  9991", "line2": "2 33892  73.8026  76.7500 0112012 105.2356  21.3871 14.23382284871529"}}, "geometry": {"type": "Point", "coordinates": [91.73600947083236, 42.3099341099843]}}, {"type": "Feature", "properties": {"norad_id": 33894, "name": "COSMOS 2251 DEB", "group": "cosmos-2251-debris", "lat": -7.860454503468044, "lon": 149.61520149187746, "alt_km": 926.3727767076771, "timestamp": "2025-12-26T19:22:39.302242+00:00", "meta": {"OBJECT_NAME": "COSMOS 2251 DEB", "OBJECT_ID": "1993-036CX", "EPOCH": "2025-12-26T07:28:06.751200", "MEAN_MOTION": 13.21329669, "ECCENTRICITY": 0.05785131, "INCLINATION": 73.7663, "RA_OF_ASC_NODE": 328.0775, "ARG_OF_PERICENTER": 245.6983, "MEAN_ANOMALY": 108.2665, "EPHEMERIS_TYPE": 0, "CLASSIFICATION_TYPE": "U", "NORAD_CAT_ID": 33894, "ELEMENT_SET_NO": 999, "REV_AT_EPOCH": 80887, "BSTAR": 0.00063857602, "MEAN_MOTION_DOT": 6.11e-06, "MEAN_MOTION_DDOT": 0}, "tle": {"line1": "1 33894U 93036CX  25360.31118925  .00000611  00000+0  63858-3 0  9994", "line2": "2 33894  73.7663 328.0775 0578513 245.6983 108.2665 13.21329669808870"}}, "geometry": {"type": "Point", "coordinates": [149.61520149187746, -7.860454503468044]}}, {"type": "Feature", "properties": {"norad_id": 33896, "name": "COSMOS 2251 DEB", "group": "cosmos-2251-debris", "lat": -68.60083743380326, "lon": -0.8297645607930312, "alt_km": 774.2409205590975, "timestamp": "2025-12-26T19:22:39.302253+00:00", "meta": {"OBJECT_NAME": "COSMOS 2251 DEB", "OBJECT_ID": "1993-036CZ", "EPOCH": "2025-12-26T01:48:27.628992", "MEAN_MOTION": 14.19070068, "ECCENTRICITY": 0.01272424, "INCLINATION": 73.7666, "RA_OF_ASC_NODE": 132.4723, "ARG_OF_PERICENTER": 306.0236, "MEAN_ANOMALY": 172.4194, "EPHEMERIS_TYPE": 0, "CLASSIFICATION_TYPE": "U", "NORAD_CAT_ID": 33896, "ELEMENT_SET_NO": 999, "REV_AT_EPOCH": 86929, "BSTAR": 0.00065853625, "MEAN_MOTION_DOT": 1.464e-05, "MEAN_MOTION_DDOT": 0}, "tle": {"line1": "1 33896U 93036CZ  25360.07531978  .00001464  00000+0  65854-3 0  9991", "line2": "2 33896  73.7666 132.4723 0127242 306.0236 172.4194 14.19070068869294"}}, "geometry": {"type": "Point", "coordinates": [-0.8297645607930312, -68.60083743380326]}}, {"type": "Feature", "properties": {"norad_id": 33899, "name": "COSMOS 2251 DEB", "group": "cosmos-2251-debris", "lat": -65.61435297820971, "lon": -82.03906604010392, "alt_km": 723.1389620454429, "timestamp": "2025-12-26T19:22:39.302264+00:00", "meta": {"OBJECT_NAME": "COSMOS 2251 DEB", "OBJECT_ID": "1993-036DC", "EPOCH": "2025-12-26T05:20:53.655072", "MEAN_MOTION": 14.61299819, "ECCENTRICITY": 0.00559246, "INCLINATION": 74.0532, "RA_OF_ASC_NODE": 59.9717, "ARG_OF_PERICENTER": 118.6354, "MEAN_ANOMALY": 298.2749, "EPHEMERIS_TYPE": 0, "CLASSIFICATION_TYPE": "U", "NORAD_CAT_ID": 33899, "ELEMENT_SET_NO": 999, "REV_AT_EPOCH": 89036, "BSTAR": 0.00077649401, "MEAN_MOTION_DOT": 3.891e-05, "MEAN_MOTION_DDOT": 0}, "tle": {"line1": "1 33899U 93036DC  25360.22284323  .00003891  00000+0  77649-3 0  9991", "line2": "2 33899  74.0532  59.9717 0055924 118.6354 298.2749 14.61299819890363"}}, "geometry": {"type": "Point", "coordinates": [-82.03906604010392, -65.61435297820971]}}, {"type": "Feature", "properties": {"norad_id": 33900, "name": "COSMOS 2251 DEB", "group": "cosmos-2251-debris", "lat": 37.26165609372734, "lon": 140.46728961279888, "alt_km": 664.4857262593914, "timestamp": "2025-12-26T19:22:39.302274+00:00", "meta": {"OBJECT_NAME": "COSMOS 2251 DEB", "OBJECT_ID": "1993-036DD", "EPOCH": "2025-12-26T07:45:26.488800", "MEAN_MOTION": 14.58395262, "ECCENTRICITY": 0.00463021, "INCLINATION": 74.0196, "RA_OF_ASC_NODE": 333.981, "ARG_OF_PERICENTER": 122.0506, "MEAN_ANOMALY": 357.6558, "EPHEMERIS_TYPE": 0, "CLASSIFICATION_TYPE": "U", "NORAD_CAT_ID": 33900, "ELEMENT_SET_NO": 999, "REV_AT_EPOCH": 89234, "BSTAR": 0.00044465766, "MEAN_MOTION_DOT": 2.062e-05, "MEAN_MOTION_DDOT": 0}, "tle": {"line1": "1 33900U 93036DD  25360.32322325  .00002062  00000+0  44466-3 0  9990", "line2": "2 33900  74.0196 333.9810 0046302 122.0506 357.6558 14.58395262892342"}}, "geometry": {"type": "Point", "coordinates": [140.46728961279888, 37.26165609372734]}}, {"type": "Feature", "properties": {"norad_id": 33901, "name": "COSMOS 2251 DEB", "group": "cosmos-2251-debris", "lat": -11.078393567347153, "lon": -157.2449471929759, "alt_km": 502.6013978626261, "timestamp": "2025-12-26T19:22:39.302285+00:00", "meta": {"OBJECT_NAME": "COSMOS 2251 DEB", "OBJECT_ID": "1993-036DE", "EPOCH": "2025-12-26T12:12:32.866272", "MEAN_MOTION": 15.17368509, "ECCENTRICITY": 0.0029783, "INCLINATION": 73.7743, "RA_OF_ASC_NODE": 20.1195, "ARG_OF_PERICENTER": 149.4577, "MEAN_ANOMALY": 210.836, "EPHEMERIS_TYPE": 0, "CLASSIFICATION_TYPE": "U", "NORAD_CAT_ID": 33901, "ELEMENT_SET_NO": 999, "REV_AT_EPOCH": 89722, "BSTAR": 0.0023501732, "MEAN_MOTION_DOT": 0.00047754, "MEAN_MOTION_DDOT": 0}, "tle": {"line1": "1 33901U 93036DE  25360.50871373  .00047754  00000+0  23502-2 0  9997", "line2": "2 33901  73.7743  20.1195 0029783 149.4577 210.8360 15.17368509897226"}}, "geometry": {"type": "Point", "coordinates": [-157.2449471929759, -11.078393567347153]}}]}